NORAD_CAT_ID,OBJECT_NAME,OBJECT_TYPE,EPOCH,MEAN_MOTION,ECCENTRICITY,INCLINATION,RA_OF_ASC_NODE,ARG_OF_PERICENTER,MEAN_ANOMALY,BSTAR,MEAN_MOTION_DOT,MEAN_MOTION_DDOT,TLE_LINE0,TLE_LINE1,TLE_LINE2,SEMIMAJOR_AXIS,PERIOD,APOGEE,PERIGEE,DECAYED
54779.0,STARLINK-5447,PAYLOAD,2024-02-05 18:33:51,15.0884198,0.0001404,53.2169,214.0858,97.9881,262.1271,2.3885e-05,9.2e-07,0.0,0 STARLINK-5447,1 54779U 22175X   24036.77351004  .00000092  00000-0  23885-4 0  9992,2 54779  53.2169 214.0858 0001404  97.9881 262.1271 15.08841980 64958,6917.874,95.437,540.711,538.768,0.0
54779.0,STARLINK-5447,PAYLOAD,2024-02-06 10:27:43,15.08836245,0.0001442,53.2173,211.1146,94.393,265.7227,7.4504e-07,-2.76e-06,0.0,0 STARLINK-5447,1 54779U 22175X   24037.43591538 -.00000276  00000-0  74504-6 0  9995,2 54779  53.2173 211.1146 0001442  94.3930 265.7227 15.08836245 62898,6917.892,95.438,540.754,538.759,0.0
54779.0,STARLINK-5447,PAYLOAD,2024-02-06 18:24:38,15.08834491,0.000144,53.2173,209.6265,100.9545,259.1609,-2.3316e-05,-6.59e-06,0.0,0 STARLINK-5447,1 54779U 22175X   24037.76711787 -.00000659  00000-0 -23316-4 0  9990,2 54779  53.2173 209.6265 0001440 100.9545 259.1609 15.08834491 65105,6917.897,95.438,540.758,538.766,0.0
54779.0,STARLINK-5447,PAYLOAD,2024-02-07 15:04:39,15.08837175,0.0001373,53.2172,205.76,100.2643,259.8504,3.4414e-05,2.6e-06,0.0,0 STARLINK-5447,1 54779U 22175X   24038.62823673  .00000260  00000-0  34414-4 0  9991,2 54779  53.2172 205.7600 0001373 100.2643 259.8504 15.08837175 65238,6917.889,95.438,540.704,538.804,0.0
54779.0,STARLINK-5447,PAYLOAD,2024-02-07 18:15:25,15.08843818,0.0001227,53.2167,205.1683,99.7916,260.3214,-2.2085e-05,-6.39e-06,0.0,0 STARLINK-5447,1 54779U 22175X   24038.76071434 -.00000639  00000-0 -22085-4 0  9999,2 54779  53.2167 205.1683 0001227  99.7916 260.3214 15.08843818 63098,6917.869,95.437,540.583,538.885,0.0
54779.0,STARLINK-5447,PAYLOAD,2024-02-08 14:55:26,15.08837042,0.0001244,53.2172,201.3018,102.186,257.9272,0.00010447,1.375e-05,0.0,0 STARLINK-5447,1 54779U 22175X   24039.62183583  .00001375  00000-0  10447-3 0  9998,2 54779  53.2172 201.3018 0001244 102.1860 257.9272 15.08837042 65382,6917.889,95.438,540.615,538.894,0.0
54779.0,STARLINK-5447,PAYLOAD,2024-02-08 19:41:35,15.08839878,0.0001067,53.2161,200.4079,86.4535,273.6579,9.6501e-05,1.248e-05,0.0,0 STARLINK-5447,1 54779U 22175X   24039.82055473  .00001248  00000-0  96501-4 0  9991,2 54779  53.2161 200.4079 0001067  86.4535 273.6579 15.08839878 63251,6917.881,95.438,540.484,539.008,0.0
54779.0,STARLINK-5447,PAYLOAD,2024-02-10 09:50:51,15.08836763,0.0001289,53.2171,193.2684,78.2415,281.8722,1.8919e-05,1.3e-07,0.0,0 STARLINK-5447,1 54779U 22175X   24041.41032037  .00000013  00000-0  18919-4 0  9996,2 54779  53.2171 193.2684 0001289  78.2415 281.8722 15.08836763 63492,6917.89,95.438,540.647,538.864,0.0
54779.0,STARLINK-5447,PAYLOAD,2024-02-10 16:12:23,15.08840616,0.0001384,53.217,192.0818,77.6161,282.4986,5.5433e-05,5.94e-06,0.0,0 STARLINK-5447,1 54779U 22175X   24041.67527697  .00000594  00000-0  55433-4 0  9991,2 54779  53.2170 192.0818 0001384  77.6161 282.4986 15.08840616 65699,6917.879,95.438,540.701,538.786,0.0
54779.0,STARLINK-5447,PAYLOAD,2024-02-11 09:41:38,15.08846368,0.0001272,53.2169,188.8117,89.6013,270.5125,4.0332e-06,-2.24e-06,0.0,0 STARLINK-5447,1 54779U 22175X   24042.40391504 -.00000224  00000-0  40332-5 0  9993,2 54779  53.2169 188.8117 0001272  89.6013 270.5125 15.08846368 63643,6917.861,95.437,540.606,538.846,0.0
54779.0,STARLINK-5447,PAYLOAD,2024-02-11 14:27:47,15.08848772,0.0001446,53.2176,187.9195,117.5579,242.5561,2.2446e-05,6.9e-07,0.0,0 STARLINK-5447,1 54779U 22175X   24042.60263112  .00000069  00000-0  22446-4 0  9999,2 54779  53.2176 187.9195 0001446 117.5579 242.5561 15.08848772 65835,6917.854,95.437,540.719,538.718,0.0
54779.0,STARLINK-5447,PAYLOAD,2024-02-11 16:03:10,15.08849008,0.0001331,53.2168,187.6221,84.174,275.9404,5.037e-05,5.14e-06,0.0,0 STARLINK-5447,1 54779U 22175X   24042.66887112  .00000514  00000-0  50370-4 0  9999,2 54779  53.2168 187.6221 0001331  84.1740 275.9404 15.08849008 65845,6917.853,95.437,540.639,538.797,0.0
54779.0,STARLINK-5447,PAYLOAD,2024-02-12 14:18:36,15.08827357,0.0001293,53.2174,183.4594,112.3409,247.7721,-5.9599e-05,-1.236e-05,0.0,0 STARLINK-5447,1 54779U 22175X   24043.59625133 -.00001236  00000-0 -59599-4 0  9991,2 54779  53.2174 183.4594 0001293 112.3409 247.7721 15.08827357 65989,6917.919,95.438,540.679,538.89,0.0
54779.0,STARLINK-5447,PAYLOAD,2024-02-12 19:04:46,15.08817729,0.0001151,53.2172,182.5671,84.3823,275.7301,-0.00012942,-2.346e-05,0.0,0 STARLINK-5447,1 54779U 22175X   24043.79498226 -.00002346  00000-0 -12942-3 0  9997,2 54779  53.2172 182.5671 0001151  84.3823 275.7301 15.08817729 63855,6917.948,95.439,540.61,539.017,0.0
54779.0,STARLINK-5447,PAYLOAD,2024-02-13 12:34:00,15.08828493,0.0001336,53.2178,179.2986,81.3336,278.7808,-4.2923e-05,-9.71e-06,0.0,0 STARLINK-5447,1 54779U 22175X   24044.52361971 -.00000971  00000-0 -42923-4 0  9990,2 54779  53.2178 179.2986 0001336  81.3336 278.7808 15.08828493 63961,6917.916,95.438,540.705,538.856,0.0
54779.0,STARLINK-5447,PAYLOAD,2024-02-13 14:09:23,15.08830261,0.0001465,53.2179,179.0017,72.228,287.8872,-7.4599e-06,-4.07e-06,0.0,0 STARLINK-5447,1 54779U 22175X   24044.58985915 -.00000407  00000-0 -74599-5 0  9995,2 54779  53.2179 179.0017 0001465  72.2280 287.8872 15.08830261 66135,6917.91,95.438,540.789,538.762,0.0
54779.0,STARLINK-5447,PAYLOAD,2024-02-13 18:55:31,15.08849351,0.0001261,53.2171,178.1035,91.7742,268.3394,8.7151e-05,1.1e-05,0.0,0 STARLINK-5447,1 54779U 22175X   24044.78856305  .00001100  00000-0  87151-4 0  9993,2 54779  53.2171 178.1035 0001261  91.7742 268.3394 15.08849351 64007,6917.852,95.437,540.589,538.844,0.0
54779.0,STARLINK-5447,PAYLOAD,2024-02-14 12:24:48,15.08816511,0.0001314,53.217,174.8338,100.6502,259.4638,0.0001858,2.669e-05,0.0,0 STARLINK-5447,1 54779U 22175X   24045.51722749  .00002669  00000-0  18580-3 0  9999,2 54779  53.2170 174.8338 0001314 100.6502 259.4638 15.08816511 64114,6917.952,95.439,540.726,538.908,0.0
54779.0,STARLINK-5447,PAYLOAD,2024-02-14 14:00:11,15.08817213,0.0001331,53.2169,174.5363,100.9506,259.1635,0.0001888,2.716e-05,0.0,0 STARLINK-5447,1 54779U 22175X   24045.58346800  .00002716  00000-0  18880-3 0  9992,2 54779  53.2169 174.5363 0001331 100.9506 259.1635 15.08817213 66287,6917.95,95.439,540.736,538.894,0.0
54779.0,STARLINK-5447,PAYLOAD,2024-02-14 15:35:34,15.08819248,0.0001188,53.2166,174.2407,95.1042,265.0086,0.0001773,2.533e-05,0.0,0 STARLINK-5447,1 54779U 22175X   24045.64970817  .00002533  00000-0  17730-3 0  9990,2 54779  53.2166 174.2407 0001188  95.1042 265.0086 15.08819248 66297,6917.944,95.439,540.631,538.987,0.0
54779.0,STARLINK-5447,PAYLOAD,2024-02-15 01:07:53,15.08832152,0.0001339,53.2177,172.4569,97.6055,262.509,0.00022824,3.346e-05,0.0,0 STARLINK-5447,1 54779U 22175X   24046.04714241  .00003346  00000-0  22824-3 0  9995,2 54779  53.2177 172.4569 0001339  97.6055 262.5090 15.08832152 64190,6917.904,95.438,540.696,538.843,0.0
54779.0,STARLINK-5447,PAYLOAD,2024-02-15 12:15:33,15.0885726,0.0001194,53.2161,170.3703,70.5385,289.5737,0.00010453,1.377e-05,0.0,0 STARLINK-5447,1 54779U 22175X   24046.51080936  .00001377  00000-0  10453-3 0  9991,2 54779  53.2161 170.3703 0001194  70.5385 289.5737 15.08857260 64267,6917.828,95.436,540.519,538.867,0.0
54779.0,STARLINK-5447,PAYLOAD,2024-02-15 13:50:56,15.08860227,0.000121,53.2161,170.0732,71.6987,288.4137,0.00013153,1.807e-05,0.0,0 STARLINK-5447,1 54779U 22175X   24046.57704641  .00001807  00000-0  13153-3 0  9991,2 54779  53.2161 170.0732 0001210  71.6987 288.4137 15.08860227 66435,6917.819,95.436,540.521,538.847,0.0
54779.0,STARLINK-5447,PAYLOAD,2024-02-15 17:01:42,15.08868852,0.0001275,53.2171,169.4815,88.6562,271.4577,0.00022086,3.232e-05,0.0,0 STARLINK-5447,1 54779U 22175X   24046.70951856  .00003232  00000-0  22086-3 0  9997,2 54779  53.2171 169.4815 0001275  88.6562 271.4577 15.08868852 64292,6917.792,95.436,540.539,538.775,0.0
54779.0,STARLINK-5447,PAYLOAD,2024-02-16 00:58:39,15.08851757,0.0001691,53.2174,167.9941,88.6937,271.4249,3.2203e-05,2.25e-06,0.0,0 STARLINK-5447,1 54779U 22175X   24047.04073050  .00000225  00000-0  32203-4 0  9998,2 54779  53.2174 167.9941 0001691  88.6937 271.4249 15.08851757 64344,6917.844,95.437,540.879,538.54,0.0
54779.0,STARLINK-5447,PAYLOAD,2024-02-16 12:06:21,15.08843974,0.0001753,53.2171,165.9142,94.2142,265.905,0.00015491,2.178e-05,0.0,0 STARLINK-5447,1 54779U 22175X   24047.50441247  .00002178  00000-0  15491-3 0  9994,2 54779  53.2171 165.9142 0001753  94.2142 265.9050 15.08843974 64410,6917.868,95.437,540.946,538.521,0.0
54779.0,STARLINK-5447,PAYLOAD,2024-02-16 13:41:44,15.08842094,0.0001619,53.218,165.6175,97.0765,263.0411,0.00013245,1.821e-05,0.0,0 STARLINK-5447,1 54779U 22175X   24047.57065308  .00001821  00000-0  13245-3 0  9990,2 54779  53.2180 165.6175 0001619  97.0765 263.0411 15.08842094 66588,6917.874,95.437,540.859,538.619,0.0
54779.0,STARLINK-5447,PAYLOAD,2024-02-16 16:52:29,15.0885476,0.0001286,53.217,165.0213,103.3276,256.786,0.00024722,3.65e-05,0.0,0 STARLINK-5447,1 54779U 22175X   24047.70312239  .00003650  00000-0  24722-3 0  9997,2 54779  53.2170 165.0213 0001286 103.3276 256.7860 15.08854760 64445,6917.835,95.437,540.59,538.811,0.0
54779.0,STARLINK-5447,PAYLOAD,2024-02-17 11:57:07,15.08849299,0.0002108,53.2162,161.4559,129.3287,230.7892,-9.7212e-05,-1.836e-05,0.0,0 STARLINK-5447,1 54779U 22175X   24048.49800124 -.00001836  00000-0 -97212-4 0  9990,2 54779  53.2162 161.4559 0002108 129.3287 230.7892 15.08849299 64564,6917.852,95.437,541.175,538.259,0.0
54779.0,STARLINK-5447,PAYLOAD,2024-02-17 13:32:30,15.08849287,0.0001576,53.2173,161.1553,98.208,261.9091,-0.00020494,-3.549e-05,0.0,0 STARLINK-5447,1 54779U 22175X   24048.56424244 -.00003549  00000-0 -20494-3 0  9993,2 54779  53.2173 161.1553 0001576  98.2080 261.9091 15.08849287 66735,6917.852,95.437,540.807,538.627,0.0
